VSP RF A1               
1 59135U 24043AP  26066.03073316  .00000577  00000+0  25199-4 0  9997
2 59135  97.5247 201.5379 0009431 234.6315 125.4042 15.26179596111403
STARLINK-35506          
1 66324U 25253F   26068.72406323  .00031398  00000+0  11451-2 0  9994
2 66324  43.0030 211.9772 0002642 271.1001  88.9548 15.27595327 20255
